[{"OBJECT_NAME":"STARLINK-36989","OBJECT_ID":"2026-055R","EPOCH":"2026-04-15T13:11:58.112160","MEAN_MOTION":15.80909722,"ECCENTRICITY":0.00010695,"INCLINATION":53.1573,"RA_OF_ASC_NODE":152.4167,"ARG_OF_PERICENTER":91.869,"MEAN_ANOMALY":268.2455,"EPHEMERIS_TYPE":0,"CLASSIFICATION_TYPE":"U","NORAD_CAT_ID":68277,"ELEMENT_SET_NO":999,"REV_AT_EPOCH":551,"BSTAR":0.00068198487,"MEAN_MOTION_DOT":0.00136277,"MEAN_MOTION_DDOT":0},{"OBJECT_NAME":"STARLINK-36982","OBJECT_ID":"2026-055S","EPOCH":"2026-04-15T10:10:58.573920","MEAN_MOTION":15.80919963,"ECCENTRICITY":0.0001076,"INCLINATION":53.1582,"RA_OF_ASC_NODE":153.055,"ARG_OF_PERICENTER":70.9567,"MEAN_ANOMALY":289.1572,"EPHEMERIS_TYPE":0,"CLASSIFICATION_TYPE":"U","NORAD_CAT_ID":68278,"ELEMENT_SET_NO":999,"REV_AT_EPOCH":549,"BSTAR":0.0011668975,"MEAN_MOTION_DOT":0.00236539,"MEAN_MOTION_DDOT":0},{"OBJECT_NAME":"STARLINK-36934","OBJECT_ID":"2026-055T","EPOCH":"2026-04-15T10:12:03.345408","MEAN_MOTION":15.80925605,"ECCENTRICITY":0.000112,"INCLINATION":53.1578,"RA_OF_ASC_NODE":153.0604,"ARG_OF_PERICENTER":81.3743,"MEAN_ANOMALY":278.7407,"EPHEMERIS_TYPE":0,"CLASSIFICATION_TYPE":"U","NORAD_CAT_ID":68279,"ELEMENT_SET_NO":999,"REV_AT_EPOCH":549,"BSTAR":0.0013729615,"MEAN_MOTION_DOT":0.00279926,"MEAN_MOTION_DDOT":0},{"OBJECT_NAME":"STARLINK-37070","OBJECT_ID":"2026-055U","EPOCH":"2026-04-15T08:37:46.820352","MEAN_MOTION":15.80898373,"ECCENTRICITY":0.0001256,"INCLINATION":53.1581,"RA_OF_ASC_NODE":153.3614,"ARG_OF_PERICENTER":45.0725,"MEAN_ANOMALY":315.0399,"EPHEMERIS_TYPE":0,"CLASSIFICATION_TYPE":"U","NORAD_CAT_ID":68280,"ELEMENT_SET_NO":999,"REV_AT_EPOCH":548,"BSTAR":0.00080699024,"MEAN_MOTION_DOT":0.00161782,"MEAN_MOTION_DDOT":0},{"OBJECT_NAME":"STARLINK-37134","OBJECT_ID":"2026-055V","EPOCH":"2026-04-15T10:06:39.254688","MEAN_MOTION":15.80941836,"ECCENTRICITY":0.0001185,"INCLINATION":53.1578,"RA_OF_ASC_NODE":153.0341,"ARG_OF_PERICENTER":85.8435,"MEAN_ANOMALY":274.2724,"EPHEMERIS_TYPE":0,"CLASSIFICATION_TYPE":"U","NORAD_CAT_ID":68281,"ELEMENT_SET_NO":999,"REV_AT_EPOCH":549,"BSTAR":0.00075079049,"MEAN_MOTION_DOT":0.00150571,"MEAN_MOTION_DDOT":0},{"OBJECT_NAME":"STARLINK-37160","OBJECT_ID":"2026-055W","EPOCH":"2026-04-15T10:07:44.058144","MEAN_MOTION":15.8095469,"ECCENTRICITY":0.00013523,"INCLINATION":53.1578,"RA_OF_ASC_NODE":153.0399,"ARG_OF_PERICENTER":75.4703,"MEAN_ANOMALY":284.6469,"EPHEMERIS_TYPE":0,"CLASSIFICATION_TYPE":"U","NORAD_CAT_ID":68282,"ELEMENT_SET_NO":999,"REV_AT_EPOCH":549,"BSTAR":0.0010189521,"MEAN_MOTION_DOT":0.00206055,"MEAN_MOTION_DDOT":0},{"OBJECT_NAME":"STARLINK-37124","OBJECT_ID":"2026-055X","EPOCH":"2026-04-15T10:05:34.744992","MEAN_MOTION":15.80916609,"ECCENTRICITY":0.00015251,"INCLINATION":53.1584,"RA_OF_ASC_NODE":153.031,"ARG_OF_PERICENTER":44.687,"MEAN_ANOMALY":315.4275,"EPHEMERIS_TYPE":0,"CLASSIFICATION_TYPE":"U","NORAD_CAT_ID":68283,"ELEMENT_SET_NO":999,"REV_AT_EPOCH":549,"BSTAR":0.00092766113,"MEAN_MOTION_DOT":0.00186781,"MEAN_MOTION_DDOT":0},{"OBJECT_NAME":"STARLINK-37159","OBJECT_ID":"2026-055Y","EPOCH":"2026-04-15T14:37:44.499648","MEAN_MOTION":15.80438005,"ECCENTRICITY":0.00026071,"INCLINATION":53.1579,"RA_OF_ASC_NODE":152.0753,"ARG_OF_PERICENTER":72.7436,"MEAN_ANOMALY":287.3872,"EPHEMERIS_TYPE":0,"CLASSIFICATION_TYPE":"U","NORAD_CAT_ID":68284,"ELEMENT_SET_NO":999,"REV_AT_EPOCH":552,"BSTAR":-0.00034088632,"MEAN_MOTION_DOT":-0.00066156,"MEAN_MOTION_DDOT":0},{"OBJECT_NAME":"STARLINK-36725","OBJECT_ID":"2026-055Z","EPOCH":"2026-04-15T10:03:24.875424","MEAN_MOTION":15.8094453,"ECCENTRICITY":0.00011089,"INCLINATION":53.1583,"RA_OF_ASC_NODE":153.019,"ARG_OF_PERICENTER":84.5248,"MEAN_ANOMALY":275.5901,"EPHEMERIS_TYPE":0,"CLASSIFICATION_TYPE":"U","NORAD_CAT_ID":68285,"ELEMENT_SET_NO":999,"REV_AT_EPOCH":549,"BSTAR":0.00085653622,"MEAN_MOTION_DOT":0.00172336,"MEAN_MOTION_DDOT":0},{"OBJECT_NAME":"STARLINK-36998","OBJECT_ID":"2026-055AA","EPOCH":"2026-04-15T10:01:15.130272","MEAN_MOTION":15.80943677,"ECCENTRICITY":0.00013493,"INCLINATION":53.1582,"RA_OF_ASC_NODE":153.0106,"ARG_OF_PERICENTER":72.2575,"MEAN_ANOMALY":287.8595,"EPHEMERIS_TYPE":0,"CLASSIFICATION_TYPE":"U","NORAD_CAT_ID":68286,"ELEMENT_SET_NO":999,"REV_AT_EPOCH":549,"BSTAR":0.00086099334,"MEAN_MOTION_DOT":0.00173249,"MEAN_MOTION_DDOT":0},{"OBJECT_NAME":"STARLINK-37165","OBJECT_ID":"2026-055AB","EPOCH":"2026-04-15T14:33:16.641504","MEAN_MOTION":15.80975813,"ECCENTRICITY":0.00018997,"INCLINATION":53.1577,"RA_OF_ASC_NODE":152.0531,"ARG_OF_PERICENTER":133.2367,"MEAN_ANOMALY":226.8814,"EPHEMERIS_TYPE":0,"CLASSIFICATION_TYPE":"U","NORAD_CAT_ID":68287,"ELEMENT_SET_NO":999,"REV_AT_EPOCH":552,"BSTAR":0.0013294193,"MEAN_MOTION_DOT":0.00271382,"MEAN_MOTION_DDOT":0},{"OBJECT_NAME":"STARLINK-37016","OBJECT_ID":"2026-055AC","EPOCH":"2026-04-15T14:35:25.599552","MEAN_MOTION":15.80940389,"ECCENTRICITY":0.00013287,"INCLINATION":53.1575,"RA_OF_ASC_NODE":152.0632,"ARG_OF_PERICENTER":55.0323,"MEAN_ANOMALY":305.0825,"EPHEMERIS_TYPE":0,"CLASSIFICATION_TYPE":"U","NORAD_CAT_ID":68288,"ELEMENT_SET_NO":999,"REV_AT_EPOCH":552,"BSTAR":0.000997594,"MEAN_MOTION_DOT":0.0020148,"MEAN_MOTION_DDOT":0},{"OBJECT_NAME":"STARLINK-37010","OBJECT_ID":"2026-055AD","EPOCH":"2026-04-15T08:28:03.496800","MEAN_MOTION":15.80913871,"ECCENTRICITY":0.00011738,"INCLINATION":53.1578,"RA_OF_ASC_NODE":153.3162,"ARG_OF_PERICENTER":28.3853,"MEAN_ANOMALY":331.7234,"EPHEMERIS_TYPE":0,"CLASSIFICATION_TYPE":"U","NORAD_CAT_ID":68289,"ELEMENT_SET_NO":999,"REV_AT_EPOCH":548,"BSTAR":0.00087349758,"MEAN_MOTION_DOT":0.00175581,"MEAN_MOTION_DDOT":0},{"OBJECT_NAME":"STARLINK-37151","OBJECT_ID":"2026-055AE","EPOCH":"2026-04-15T14:31:06.400416","MEAN_MOTION":15.81027558,"ECCENTRICITY":9.63e-5,"INCLINATION":53.1583,"RA_OF_ASC_NODE":152.0431,"ARG_OF_PERICENTER":73.6481,"MEAN_ANOMALY":286.4648,"EPHEMERIS_TYPE":0,"CLASSIFICATION_TYPE":"U","NORAD_CAT_ID":68290,"ELEMENT_SET_NO":999,"REV_AT_EPOCH":552,"BSTAR":0.0014225019,"MEAN_MOTION_DOT":0.00291827,"MEAN_MOTION_DDOT":0},{"OBJECT_NAME":"STRIX-6","OBJECT_ID":"2026-056A","EPOCH":"2026-04-15T05:41:19.164768","MEAN_MOTION":14.99764595,"ECCENTRICITY":0.001637,"INCLINATION":50.2828,"RA_OF_ASC_NODE":287.2716,"ARG_OF_PERICENTER":2.5777,"MEAN_ANOMALY":357.5254,"EPHEMERIS_TYPE":0,"CLASSIFICATION_TYPE":"U","NORAD_CAT_ID":68291,"ELEMENT_SET_NO":999,"REV_AT_EPOCH":382,"BSTAR":0.0001387,"MEAN_MOTION_DOT":1.471e-5,"MEAN_MOTION_DDOT":0},{"OBJECT_NAME":"ELECTRON KICK STAGE R/B","OBJECT_ID":"2026-056C","EPOCH":"2026-04-15T05:02:42.748800","MEAN_MOTION":15.42756053,"ECCENTRICITY":0.0147735,"INCLINATION":50.2894,"RA_OF_ASC_NODE":279.5911,"ARG_OF_PERICENTER":114.7649,"MEAN_ANOMALY":246.8771,"EPHEMERIS_TYPE":0,"CLASSIFICATION_TYPE":"U","NORAD_CAT_ID":68293,"ELEMENT_SET_NO":999,"REV_AT_EPOCH":393,"BSTAR":0.00079081,"MEAN_MOTION_DOT":0.00052762,"MEAN_MOTION_DDOT":0},{"OBJECT_NAME":"STARLINK-37107","OBJECT_ID":"2026-057A","EPOCH":"2026-04-15T14:00:01.999872","MEAN_MOTION":15.75220836,"ECCENTRICITY":0.0001343,"INCLINATION":97.2854,"RA_OF_ASC_NODE":229.8312,"ARG_OF_PERICENTER":84.9144,"MEAN_ANOMALY":157.4152,"EPHEMERIS_TYPE":0,"CLASSIFICATION_TYPE":"U","NORAD_CAT_ID":68294,"ELEMENT_SET_NO":999,"REV_AT_EPOCH":509,"BSTAR":-0.00059941467,"MEAN_MOTION_DOT":-0.00088733,"MEAN_MOTION_DDOT":0},{"OBJECT_NAME":"STARLINK-37147","OBJECT_ID":"2026-057B","EPOCH":"2026-04-15T14:00:01.999872","MEAN_MOTION":15.75220299,"ECCENTRICITY":0.00013335,"INCLINATION":97.2846,"RA_OF_ASC_NODE":229.8209,"ARG_OF_PERICENTER":85.3385,"MEAN_ANOMALY":134.9936,"EPHEMERIS_TYPE":0,"CLASSIFICATION_TYPE":"U","NORAD_CAT_ID":68295,"ELEMENT_SET_NO":999,"REV_AT_EPOCH":508,"BSTAR":-0.00065808618,"MEAN_MOTION_DOT":-0.00097306,"MEAN_MOTION_DDOT":0},{"OBJECT_NAME":"STARLINK-37142","OBJECT_ID":"2026-057C","EPOCH":"2026-04-15T14:00:01.999872","MEAN_MOTION":15.75209905,"ECCENTRICITY":0.00014515,"INCLINATION":97.2854,"RA_OF_ASC_NODE":229.8485,"ARG_OF_PERICENTER":92.2137,"MEAN_ANOMALY":192.1125,"EPHEMERIS_TYPE":0,"CLASSIFICATION_TYPE":"U","NORAD_CAT_ID":68296,"ELEMENT_SET_NO":999,"REV_AT_EPOCH":497,"BSTAR":-0.00046067166,"MEAN_MOTION_DOT":-0.00068355,"MEAN_MOTION_DDOT":0},{"OBJECT_NAME":"STARLINK-37115","OBJECT_ID":"2026-057D","EPOCH":"2026-04-15T14:08:08.853504","MEAN_MOTION":15.80888894,"ECCENTRICITY":0.00016437,"INCLINATION":97.2855,"RA_OF_ASC_NODE":229.869,"ARG_OF_PERICENTER":101.0103,"MEAN_ANOMALY":259.135,"EPHEMERIS_TYPE":0,"CLASSIFICATION_TYPE":"U","NORAD_CAT_ID":68297,"ELEMENT_SET_NO":999,"REV_AT_EPOCH":409,"BSTAR":0.0010241142,"MEAN_MOTION_DOT":0.00201287,"MEAN_MOTION_DDOT":0},{"OBJECT_NAME":"STARLINK-36355","OBJECT_ID":"2026-057E","EPOCH":"2026-04-15T14:09:13.703616","MEAN_MOTION":15.80914264,"ECCENTRICITY":0.00024266,"INCLINATION":97.2846,"RA_OF_ASC_NODE":229.8692,"ARG_OF_PERICENTER":102.4678,"MEAN_ANOMALY":257.6862,"EPHEMERIS_TYPE":0,"CLASSIFICATION_TYPE":"U","NORAD_CAT_ID":68298,"ELEMENT_SET_NO":999,"REV_AT_EPOCH":409,"BSTAR":0.0011400498,"MEAN_MOTION_DOT":0.00224975,"MEAN_MOTION_DDOT":0},{"OBJECT_NAME":"STARLINK-37118","OBJECT_ID":"2026-057F","EPOCH":"2026-04-15T08:00:17.417952","MEAN_MOTION":15.8084491,"ECCENTRICITY":0.00018213,"INCLINATION":97.2849,"RA_OF_ASC_NODE":229.6046,"ARG_OF_PERICENTER":52.9159,"MEAN_ANOMALY":307.2275,"EPHEMERIS_TYPE":0,"CLASSIFICATION_TYPE":"U","NORAD_CAT_ID":68299,"ELEMENT_SET_NO":999,"REV_AT_EPOCH":405,"BSTAR":0.00031049105,"MEAN_MOTION_DOT":0.00059822,"MEAN_MOTION_DDOT":0},{"OBJECT_NAME":"STARLINK-36875","OBJECT_ID":"2026-057G","EPOCH":"2026-04-15T14:05:58.988256","MEAN_MOTION":15.80908944,"ECCENTRICITY":0.00026369,"INCLINATION":97.2855,"RA_OF_ASC_NODE":229.8721,"ARG_OF_PERICENTER":98.1142,"MEAN_ANOMALY":262.0425,"EPHEMERIS_TYPE":0,"CLASSIFICATION_TYPE":"U","NORAD_CAT_ID":68300,"ELEMENT_SET_NO":999,"REV_AT_EPOCH":409,"BSTAR":0.001108598,"MEAN_MOTION_DOT":0.00218555,"MEAN_MOTION_DDOT":0}]
